1 44943U 20001AF  23030.96347943  .00001128  00000-0  94659-4 0  9999
2 44943  53.0541  16.1167 0002054 109.7483 250.3728 15.06395135169246
1 44943U 20001AF  23031.22886483  .00001974  00000-0  15136-3 0  9997
2 44943  53.0527  14.9279 0001745  96.0502 264.0686 15.06402432169284
1 44943U 20001AF  23032.22406678  .00002022  00000-0  15458-3 0  9994
2 44943  53.0540  10.4642 0001659  93.4573 266.6605 15.06404588169437
1 44943U 20001AF  23032.35675878  .00003585  00000-0  25937-3 0  9996
2 44943  53.0527   9.8668 0001647  92.6915 267.4263 15.06408021169457
1 44943U 20001AF  23033.15292729  .00000381  00000-0  44464-4 0  9993
2 44943  53.0528   6.2907 0001661  99.8676 260.2500 15.06395756169572
1 44943U 20001AF  23033.28561941  .00002153  00000-0  16338-3 0  9999
2 44943  53.0532   5.6965 0001616  97.9368 262.1804 15.06401495169599
1 44943U 20001AF  23034.28082007  .00005901  00000-0  41459-3 0  9997
2 44943  53.0531   1.2281 0001634 102.4254 257.6918 15.06409536169743
1 44943U 20001AF  23034.34716623  .00006755  00000-0  47181-3 0  9998
2 44943  53.0530   0.9301 0001634 102.9321 257.1850 15.06411700169758
1 44943U 20001AF  23034.87794359  .00001245  00000-0  10250-3 0  9994
2 44943  53.0529 358.5476 0001688 105.9375 254.1800 15.06400023169839
1 44943U 20001AF  23035.27602497  .00001732  00000-0  13513-3 0  9996
2 44943  53.0534 356.7592 0001680 104.1803 255.9372 15.06400970169893
1 44943U 20001AF  23035.87315196 -.00000414  00000-0 -89146-5 0  9994
2 44943  53.0535 354.0792 0001707  97.4822 262.6361 15.06395441169981
1 44943U 20001AF  23035.87315196 -.00000414  00000-0 -89146-5 0  9994
2 44943  53.0535 354.0792 0001707  97.4822 262.6361 15.06395441169981
1 44943U 20001AF  23036.27123111  .00000940  00000-0  81978-4 0  9999
2 44943  53.0530 352.2917 0001700  99.7067 260.4114 15.06400156170045
1 44943U 20001AF  23036.86835521  .00001914  00000-0  14739-3 0  9991
2 44943  53.0527 349.6108 0001734  99.2359 260.8826 15.06397474170131
1 44943U 20001AF  23037.13373933  .00002965  00000-0  21785-3 0  9992
2 44943  53.0538 348.4203 0001619  96.1677 263.9497 15.06404781170179
1 44943U 20001AF  23037.26643067  .00004088  00000-0  29312-3 0  9996
2 44943  53.0531 347.8239 0001558  96.1914 263.9253 15.06409661170194
1 44943U 20001AF  23037.86355435  .00001982  00000-0  15193-3 0  9993
2 44943  53.0539 345.1402 0001663 112.7264 247.3901 15.06403616170285
1 44943U 20001AF  23038.19528359  .00007151  00000-0  49822-3 0  9997
2 44943  53.0536 343.6550 0001577  89.3742 270.7428 15.06418500170331
1 44943U 20001AF  23038.26162966  .00009224  00000-0  63695-3 0  9990
2 44943  53.0536 343.3568 0001563  88.6354 271.4814 15.06422157170344
1 44943U 20001AF  23038.85875509  .00001464  00000-0  11714-3 0  9992
2 44943  53.0536 340.6753 0000963  85.4121 274.6978 15.06399305170434
1 44943U 20001AF  23038.85875509  .00001464  00000-0  11714-3 0  9992
2 44943  53.0536 340.6753 0000963  85.4121 274.6978 15.06399305170434
1 44943U 20001AF  23039.25682932  .00020814  00000-0  14110-2 0  9995
2 44943  53.0538 338.8895 0001478  99.2875 260.8281 15.06429336170491
1 44943U 20001AF  23039.32317490  .00026197  00000-0  17695-2 0  9998
2 44943  53.0538 338.5922 0001464 101.0743 259.0411 15.06433265170503
1 44943U 20001AF  23040.25203837  .00035167  00000-0  23672-2 0  9990
2 44943  53.0532 334.4226 0001036 100.6121 259.4985 15.06413734170643
1 44943U 20001AF  23040.25203837  .00035167  00000-0  23672-2 0  9990
2 44943  53.0532 334.4226 0001036 100.6121 259.4985 15.06413734170643
1 44943U 20001AF  23041.04820454  .00032018  00000-0  21576-2 0  9991
2 44943  53.0537 330.8480 0001152 115.6462 244.4646 15.06418291170767
1 44943U 20001AF  23041.04820454  .00032018  00000-0  21576-2 0  9991
2 44943  53.0537 330.8480 0001152 115.6462 244.4646 15.06418291170767
1 44943U 20001AF  23041.97706443  .00015322  00000-0  10453-2 0  9995
2 44943  53.0524 326.6757 0001352  89.3614 270.7530 15.06400206170908
1 44943U 20001AF  23042.10975599  .00027021  00000-0  18251-2 0  9994
2 44943  53.0526 326.0820 0001160  88.6151 271.4971 15.06417917170926
1 44943U 20001AF  23042.10975599  .00027021  00000-0  18251-2 0  9994
2 44943  53.0526 326.0820 0001160  88.6151 271.4971 15.06417917170926
1 44943U 20001AF  23042.77322622  .00026042  00000-0  17609-2 0  9998
2 44943  53.0534 323.1013 0001171 127.2810 232.8286 15.06396686171022
1 44943U 20001AF  23042.77322622  .00026042  00000-0  17609-2 0  9998
2 44943  53.0534 323.1013 0001171 127.2810 232.8286 15.06396686171022
1 44943U 20001AF  23043.50304814  .00000479  00000-0  51068-4 0  9998
2 44943  53.0537 319.8259 0001980  95.7653 264.3562 15.06388742171134
1 44943U 20001AF  23043.50304814  .00000479  00000-0  51068-4 0  9998
2 44943  53.0537 319.8259 0001980  95.7653 264.3562 15.06388742171134
1 44943U 20001AF  23044.16651999  .00006123  00000-0  42969-3 0  9991
2 44943  53.0538 316.8482 0001743  81.6720 278.4467 15.06390008171235
1 44943U 20001AF  23045.09537335  .00013042  00000-0  89254-3 0  9997
2 44943  53.0528 312.6770 0001438  85.8753 274.2401 15.06413063171375
1 44943U 20001AF  23045.42710574  .00007886  00000-0  54754-3 0  9998
2 44943  53.0532 311.1876 0001455  85.9829 274.1327 15.06411408171428
1 44943U 20001AF  23045.75884160  .00007851  00000-0  54531-3 0  9992
2 44943  53.0516 309.6999 0002064  94.2455 265.8770 15.06403756171474
1 44943U 20001AF  23045.75884160  .00007851  00000-0  54531-3 0  9992
2 44943  53.0516 309.6999 0002064  94.2455 265.8770 15.06403756171474
1 44943U 20001AF  23046.42230663  .00002536  00000-0  18907-3 0  9992
2 44943  53.0535 306.7204 0000910  69.3615 290.7471 15.06404675171578
1 44943U 20001AF  23046.42230663  .00002536  00000-0  18907-3 0  9992
2 44943  53.0535 306.7204 0000910  69.3615 290.7471 15.06404675171578
1 44943U 20001AF  23046.88673376  .00002666  00000-0  19780-3 0  9998
2 44943  53.0520 304.6361 0001490 102.0081 258.1075 15.06406598171641
1 44943U 20001AF  23047.41750360  .00000888  00000-0  78466-4 0  9998
2 44943  53.0529 302.2539 0001261  74.3459 285.7669 15.06411309171727
1 44943U 20001AF  23047.74925815 -.00004753  00000-0 -30065-3 0  9992
2 44943  53.0519 300.7681 0001129  89.3333 270.7785 15.06373848171770
1 44943U 20001AF  23047.94829707 -.00003640  00000-0 -22572-3 0  9995
2 44943  53.0544 299.8716 0001304  73.0589 287.0543 15.06382880171806
1 44943U 20001AF  23048.08099017 -.00003139  00000-0 -19201-3 0  9992
2 44943  53.0534 299.2729 0001177  61.6250 298.4857 15.06384430171828
1 44943U 20001AF  23048.67811559  .00000637  00000-0  61677-4 0  9993
2 44943  53.0523 296.5942 0001279  80.2513 279.8620 15.06387690171917
1 44943U 20001AF  23048.87715484  .00001856  00000-0  14349-3 0  9992
2 44943  53.0520 295.7012 0001257  79.4263 280.6867 15.06392524171949
1 44943U 20001AF  23049.40792820  .00006277  00000-0  43983-3 0  9999
2 44943  53.0523 293.3183 0001166  81.9850 278.1271 15.06403854172024
1 44943U 20001AF  23049.40792820  .00006277  00000-0  43983-3 0  9999
2 44943  53.0523 293.3183 0001166  81.9850 278.1271 15.06403854172024
1 44943U 20001AF  23049.93869993  .00011071  00000-0  76058-3 0  9990
2 44943  53.0516 290.9364 0001074  80.6077 279.5033 15.06417890172100
1 44943U 20001AF  23051.00021567  .00016436  00000-0  11179-2 0  9990
2 44943  53.0514 286.1699 0001107  85.2883 274.8232 15.06461141172263
1 44943U 20001AF  23051.00021567  .00016436  00000-0  11179-2 0  9990
2 44943  53.0514 286.1699 0001107  85.2883 274.8232 15.06461141172263
1 44943U 20001AF  23051.92908224 -.00007126  00000-0 -46024-3 0  9991
2 44943  53.0512 281.9995 0000820 109.9228 250.1850 15.06381798172409
1 44943U 20001AF  23052.32717221  .00011886  00000-0  81587-3 0  9990
2 44943  53.0509 280.2116 0000665 109.5875 250.5185 15.06383563172466
1 44943U 20001AF  23052.92429864  .00011966  00000-0  82096-3 0  9994
2 44943  53.0503 277.5315 0000731 126.9715 233.1341 15.06393180172557
1 44943U 20001AF  23053.05699190  .00012929  00000-0  88528-3 0  9996
2 44943  53.0502 276.9355 0000751 123.0920 237.0141 15.06398565172576
1 44943U 20001AF  23053.58777590  .00002560  00000-0  19073-3 0  9994
2 44943  53.0499 274.5527 0000898 101.7147 258.3942 15.06383985172656
1 44943U 20001AF  23053.58777590  .00002560  00000-0  19073-3 0  9994
2 44943  53.0499 274.5527 0000898 101.7147 258.3942 15.06383985172656
1 44943U 20001AF  23053.91951383  .00003949  00000-0  28395-3 0  9994
2 44943  53.0500 273.0632 0000639 144.0755 216.0277 15.06381960172707
1 44943U 20001AF  23054.58299094  .00011231  00000-0  77184-3 0  9995
2 44943  53.0505 270.0840 0000524 110.0157 250.0889 15.06389687172804
1 44943U 20001AF  23054.84837858  .00011767  00000-0  80759-3 0  9996
2 44943  53.0507 268.8931 0000492 104.1798 255.9245 15.06396389172842
1 44943U 20001AF  23054.98107668 -.00003635  00000-0 -22541-3 0  9992
2 44943  53.0506 268.2981 0000582 115.2571 244.8478 15.06374793172864
1 44943U 20001AF  23055.84358582  .00004026  00000-0  28905-3 0  9994
2 44943  53.0510 264.4254 0000876  84.9962 275.1127 15.06396406172999
1 44943U 20001AF  23055.97627829  .00010782  00000-0  74151-3 0  9991
2 44943  53.0512 263.8297 0000442  68.2919 291.8117 15.06404803173016
1 44943U 20001AF  23055.97627829  .00010782  00000-0  74151-3 0  9991
2 44943  53.0512 263.8297 0000442  68.2919 291.8117 15.06404803173016
1 44943U 20001AF  23056.83877926  .00020989  00000-0  14224-2 0  9996
2 44943  53.0519 259.9572 0000683  72.1075 287.9989 15.06436136173140
1 44943U 20001AF  23056.97146850  .00022941  00000-0  15521-2 0  9997
2 44943  53.0517 259.3605 0000762  74.9937 285.1137 15.06444684173168
1 44943U 20001AF  23057.56858263  .00008344  00000-0  57792-3 0  9999
2 44943  53.0532 256.6777 0000661  96.5888 263.5176 15.06428290173256
1 44943U 20001AF  23057.83396883  .00002578  00000-0  19177-3 0  9992
2 44943  53.0534 255.4876 0000427  27.4600 332.6412 15.06416580173294
1 44943U 20001AF  23057.90031496  .00000740  00000-0  68507-4 0  9997
2 44943  53.0525 255.1901 0000825  75.2913 284.8168 15.06416376173301
